NORAD_CAT_ID,OBJECT_NAME,OBJECT_TYPE,EPOCH,MEAN_MOTION,ECCENTRICITY,INCLINATION,RA_OF_ASC_NODE,ARG_OF_PERICENTER,MEAN_ANOMALY,BSTAR,MEAN_MOTION_DOT,MEAN_MOTION_DDOT,TLE_LINE0,TLE_LINE1,TLE_LINE2,SEMIMAJOR_AXIS,PERIOD,APOGEE,PERIGEE,DECAYED
53159.0,STARLINK-4111,PAYLOAD,2024-01-23 09:00:05,15.0884415,0.0001908,53.2202,49.1362,62.0139,298.1046,0.0001476,2.062e-05,0.0,0 STARLINK-4111,1 53159U 22083AD  24023.37506672  .00002062  00000-0  14760-3 0  9996,2 53159  53.2202  49.1362 0001908  62.0139 298.1046 15.08844150 84797,6917.868,95.437,541.053,538.413,0.0
53159.0,STARLINK-4111,PAYLOAD,2024-01-24 08:50:53,15.08839413,0.000189,53.2204,44.6721,85.6908,274.43,5.5109e-05,5.89e-06,0.0,0 STARLINK-4111,1 53159U 22083AD  24024.36867427  .00000589  00000-0  55109-4 0  9999,2 53159  53.2204  44.6721 0001890  85.6908 274.4300 15.08839413 84946,6917.882,95.438,541.055,538.44,0.0
53159.0,STARLINK-4111,PAYLOAD,2024-01-25 08:41:40,15.0884849,0.0002086,53.2203,40.2091,71.4137,288.7082,-2.779e-06,-3.33e-06,0.0,0 STARLINK-4111,1 53159U 22083AD  24025.36227234 -.00000333  00000-0 -27790-5 0  9991,2 53159  53.2203  40.2091 0002086  71.4137 288.7082 15.08848490 84469,6917.854,95.437,541.163,538.276,0.0
53159.0,STARLINK-4111,PAYLOAD,2024-01-26 06:57:04,15.088368,0.0002152,53.2205,36.0468,72.6381,287.4846,5.1854e-05,5.37e-06,0.0,0 STARLINK-4111,1 53159U 22083AD  24026.28963974  .00000537  00000-0  51854-4 0  9992,2 53159  53.2205  36.0468 0002152  72.6381 287.4846 15.08836800 85232,6917.89,95.438,541.244,538.266,0.0
53159.0,STARLINK-4111,PAYLOAD,2024-01-27 03:37:05,15.08840901,0.0001816,53.2183,32.1826,115.1974,244.9206,9.3516e-05,1.201e-05,0.0,0 STARLINK-4111,1 53159U 22083AD  24027.15075250  .00001201  00000-0  93516-4 0  9990,2 53159  53.2183  32.1826 0001816 115.1974 244.9206 15.08840901 85368,6917.878,95.437,540.999,538.486,0.0
53159.0,STARLINK-4111,PAYLOAD,2024-01-27 06:47:51,15.08844686,0.0001746,53.2183,31.5951,97.3101,262.809,8.5875e-05,1.079e-05,0.0,0 STARLINK-4111,1 53159U 22083AD  24027.28323269  .00001079  00000-0  85875-4 0  9992,2 53159  53.2183  31.5951 0001746  97.3101 262.8090 15.08844686 84751,6917.866,95.437,540.939,538.523,0.0
53159.0,STARLINK-4111,PAYLOAD,2024-01-28 05:03:15,15.08838977,0.000181,53.2195,27.4264,104.4683,255.651,3.163e-05,2.15e-06,0.0,0 STARLINK-4111,1 53159U 22083AD  24028.21059681  .00000215  00000-0  31630-4 0  9991,2 53159  53.2195  27.4264 0001810 104.4683 255.6510 15.08838977 85521,6917.884,95.438,541.001,538.496,0.0
53159.0,STARLINK-4111,PAYLOAD,2024-01-28 22:32:30,15.08837813,0.0001865,53.2195,24.1555,106.756,253.3637,2.2311e-05,6.7e-07,0.0,0 STARLINK-4111,1 53159U 22083AD  24028.93923842  .00000067  00000-0  22311-4 0  9990,2 53159  53.2195  24.1555 0001865 106.7560 253.3637 15.08837813 85003,6917.887,95.438,541.042,538.462,0.0
53159.0,STARLINK-4111,PAYLOAD,2024-01-29 06:29:25,15.08840895,0.0001792,53.2196,22.6686,105.227,254.892,3.9455e-05,3.4e-06,0.0,0 STARLINK-4111,1 53159U 22083AD  24029.27043636  .00000340  00000-0  39455-4 0  9993,2 53159  53.2196  22.6686 0001792 105.2270 254.8920 15.08840895 85682,6917.878,95.437,540.982,538.503,0.0
53159.0,STARLINK-4111,PAYLOAD,2024-01-30 07:55:35,15.08840962,0.0001629,53.2194,17.9113,93.8968,266.221,7.9494e-05,9.77e-06,0.0,0 STARLINK-4111,1 53159U 22083AD  24030.33027690  .00000977  00000-0  79494-4 0  9997,2 53159  53.2194  17.9113 0001629  93.8968 266.2210 15.08840962 85849,6917.877,95.437,540.869,538.616,0.0
53159.0,STARLINK-4111,PAYLOAD,2024-01-31 03:00:13,15.08838357,0.000162,53.2198,14.3425,95.6165,264.5012,1.491e-05,-5.1e-07,0.0,0 STARLINK-4111,1 53159U 22083AD  24031.12516129 -.00000051  00000-0  14910-4 0  9991,2 53159  53.2198  14.3425 0001620  95.6165 264.5012 15.08838357 85969,6917.885,95.438,540.871,538.63,0.0
53159.0,STARLINK-4111,PAYLOAD,2024-01-31 06:10:59,15.08842728,0.0001561,53.2192,13.7473,85.7135,274.4036,5.4103e-05,5.73e-06,0.0,0 STARLINK-4111,1 53159U 22083AD  24031.25763799  .00000573  00000-0  54103-4 0  9998,2 53159  53.2192  13.7473 0001561  85.7135 274.4036 15.08842728 85356,6917.872,95.437,540.817,538.657,0.0
53159.0,STARLINK-4111,PAYLOAD,2024-02-01 02:51:01,15.0881418,0.0001981,53.2199,9.8804,69.5919,290.5286,0.00034987,5.281e-05,0.0,0 STARLINK-4111,1 53159U 22083AD  24032.11876535  .00005281  00000-0  34987-3 0  9995,2 53159  53.2199   9.8804 0001981  69.5919 290.5286 15.08814180 86115,6917.959,95.439,541.195,538.454,0.0
53159.0,STARLINK-4111,PAYLOAD,2024-02-01 06:01:47,15.08812923,0.0001924,53.2199,9.2853,70.1833,289.9367,0.00035089,5.297e-05,0.0,0 STARLINK-4111,1 53159U 22083AD  24032.25124752  .00005297  00000-0  35089-3 0  9998,2 53159  53.2199   9.2853 0001924  70.1833 289.9367 15.08812923 85500,6917.963,95.439,541.159,538.497,0.0
53159.0,STARLINK-4111,PAYLOAD,2024-02-02 04:17:11,15.08839813,0.0001962,53.2201,5.1235,65.8063,294.3134,1.3568e-05,-7.2e-07,0.0,0 STARLINK-4111,1 53159U 22083AD  24033.17860451 -.00000072  00000-0  13568-4 0  9999,2 53159  53.2201   5.1235 0001962  65.8063 294.3134 15.08839813 86275,6917.881,95.438,541.103,538.389,0.0
53159.0,STARLINK-4111,PAYLOAD,2024-02-02 21:46:25,15.08840934,0.0001726,53.2197,1.855,74.7049,285.4134,6.6764e-05,7.75e-06,0.0,0 STARLINK-4111,1 53159U 22083AD  24033.90724083  .00000775  00000-0  66764-4 0  9995,2 53159  53.2197   1.8550 0001726  74.7049 285.4134 15.08840934 85752,6917.878,95.437,540.937,538.549,0.0
53159.0,STARLINK-4111,PAYLOAD,2024-02-03 07:18:43,15.08847293,0.0001687,53.2196,0.0684,78.504,281.6141,0.00011144,1.486e-05,0.0,0 STARLINK-4111,1 53159U 22083AD  24034.30467488  .00001486  00000-0  11144-3 0  9994,2 53159  53.2196   0.0684 0001687  78.5040 281.6141 15.08847293 86447,6917.858,95.437,540.89,538.556,0.0
53159.0,STARLINK-4111,PAYLOAD,2024-02-03 21:37:12,15.0884067,0.0001615,53.2204,357.3842,115.2747,244.8413,-5.9274e-05,-1.231e-05,0.0,0 STARLINK-4111,1 53159U 22083AD  24034.90084304 -.00001231  00000-0 -59274-4 0  9999,2 53159  53.2204 357.3842 0001615 115.2747 244.8413 15.08840670 85900,6917.878,95.438,540.861,538.626,0.0
53159.0,STARLINK-4111,PAYLOAD,2024-02-04 03:58:45,15.08840305,0.0001515,53.2198,356.2057,97.4107,262.7058,1.4544e-05,-5.7e-07,0.0,0 STARLINK-4111,1 53159U 22083AD  24035.16580174 -.00000057  00000-0  14544-4 0  9999,2 53159  53.2198 356.2057 0001515  97.4107 262.7058 15.08840305 86571,6917.879,95.438,540.793,538.696,0.0
53159.0,STARLINK-4111,PAYLOAD,2024-02-04 07:09:30,15.08851397,0.0001409,53.2192,355.6051,88.7057,271.4097,5.0338e-05,5.14e-06,0.0,0 STARLINK-4111,1 53159U 22083AD  24035.29827323  .00000514  00000-0  50338-4 0  9991,2 53159  53.2192 355.6051 0001409  88.7057 271.4097 15.08851397 86596,6917.846,95.437,540.685,538.736,0.0
53159.0,STARLINK-4111,PAYLOAD,2024-02-05 02:14:08,15.08845001,0.0001398,53.2193,352.0389,98.2513,261.8638,-4.3012e-06,-3.56e-06,0.0,0 STARLINK-4111,1 53159U 22083AD  24036.09315738 -.00000356  00000-0 -43012-5 0  9990,2 53159  53.2193 352.0389 0001398  98.2513 261.8638 15.08845001 86715,6917.865,95.437,540.697,538.763,0.0
53159.0,STARLINK-4111,PAYLOAD,2024-02-05 13:21:50,15.08845044,0.0001346,53.2192,349.957,93.2256,266.889,-4.3757e-06,-3.58e-06,0.0,0 STARLINK-4111,1 53159U 22083AD  24036.55683645 -.00000358  00000-0 -43757-5 0  9994,2 53159  53.2192 349.9570 0001346  93.2256 266.8890 15.08845044 86153,6917.865,95.437,540.661,538.799,0.0
53159.0,STARLINK-4111,PAYLOAD,2024-02-06 03:40:19,15.08836896,0.00014,53.2197,347.2843,100.4345,259.6805,8.7913e-06,-1.48e-06,0.0,0 STARLINK-4111,1 53159U 22083AD  24037.15300369 -.00000148  00000-0  87913-5 0  9998,2 53159  53.2197 347.2843 0001400 100.4345 259.6805 15.08836896 86873,6917.89,95.438,540.723,538.786,0.0
53159.0,STARLINK-4111,PAYLOAD,2024-02-06 06:51:04,15.08848766,0.0001305,53.2191,346.6879,110.2422,249.8711,8.7937e-05,1.112e-05,0.0,0 STARLINK-4111,1 53159U 22083AD  24037.28547284  .00001112  00000-0  87937-4 0  9997,2 53159  53.2191 346.6879 0001305 110.2422 249.8711 15.08848766 86896,6917.854,95.437,540.621,538.816,0.0
53159.0,STARLINK-4111,PAYLOAD,2024-02-07 01:55:43,15.08838395,0.0001862,53.2193,343.1178,125.6447,234.4718,7.8208e-06,-1.64e-06,0.0,0 STARLINK-4111,1 53159U 22083AD  24038.08036300 -.00000164  00000-0  78208-5 0  9997,2 53159  53.2193 343.1178 0001862 125.6447 234.4718 15.08838395 87016,6917.885,95.438,541.038,538.462,0.0
53159.0,STARLINK-4111,PAYLOAD,2024-02-07 13:03:25,15.08838454,0.0001374,53.2187,341.0402,105.3001,254.8144,-4.5536e-05,-1.013e-05,0.0,0 STARLINK-4111,1 53159U 22083AD  24038.54404680 -.00001013  00000-0 -45536-4 0  9990,2 53159  53.2187 341.0402 0001374 105.3001 254.8144 15.08838454 86457,6917.885,95.438,540.701,538.8,0.0
53159.0,STARLINK-4111,PAYLOAD,2024-02-08 01:46:30,15.08838722,0.0001329,53.2182,338.6616,100.8978,259.2163,-1.1163e-05,-4.66e-06,0.0,0 STARLINK-4111,1 53159U 22083AD  24039.07396899 -.00000466  00000-0 -11163-4 0  9991,2 53159  53.2182 338.6616 0001329 100.8978 259.2163 15.08838722 87161,6917.884,95.438,540.669,538.83,0.0
53159.0,STARLINK-4111,PAYLOAD,2024-02-09 03:12:40,15.08843256,0.0001454,53.2187,333.9009,91.6779,268.438,0.00012688,1.732e-05,0.0,0 STARLINK-4111,1 53159U 22083AD  24040.13380383  .00001732  00000-0  12688-3 0  9998,2 53159  53.2187 333.9009 0001454  91.6779 268.4380 15.08843256 87324,6917.87,95.437,540.741,538.73,0.0
53159.0,STARLINK-4111,PAYLOAD,2024-02-09 04:48:03,15.0884661,0.0001507,53.219,333.6004,86.0776,274.0388,0.0001508,2.113e-05,0.0,0 STARLINK-4111,1 53159U 22083AD  24040.20004125  .00002113  00000-0  15080-3 0  9996,2 53159  53.2190 333.6004 0001507  86.0776 274.0388 15.08846610 86703,6917.86,95.437,540.768,538.683,0.0
53159.0,STARLINK-4111,PAYLOAD,2024-02-10 01:28:05,15.08835651,0.0001835,53.219,329.7407,69.8578,290.2611,1.5571e-05,-4e-07,0.0,0 STARLINK-4111,1 53159U 22083AD  24041.06117766 -.00000040  00000-0  15571-4 0  9991,2 53159  53.2190 329.7407 0001835  69.8578 290.2611 15.08835651 87465,6917.894,95.438,541.028,538.489,0.0
